#dP2024  8  1  0  0  0.00000000     289 d+D   IGS20 FIT AIUB
## 2325 345600.00000000   300.00000000 60523 0.0000000000000
+   81   G01G02G03G04G05G06G07G08G09G10G11G12G13G14G15G16G17
+        G18G19G20G21G22G23G24G25G26G27G28G29G30G31G32R01R02
+        R03R04R05R07R08R09R11R12R14R15R16R17R18R19R20R21R22
+        R24R25R26E02E03E04E05E06E07E08E09E10E11E12E13E14E15
+        E18E19E21E24E25E26E27E29E30E31E33E34E36  0  0  0  0
++         4  4  4  6  4  4  4  4  6  4  4  4  6  4  6  4  4
++         4  4  4  4  4  4  4  4  4  4  4  4  4  4  6  5  4
++         5  4  4  5  5  4  4  4  4  4  4  6  6  5  6  6  6
++         6  6  5  4  6  6  6  6  6  6  6  4  4  4  4  4  4
++         4  6  4  4  4  4  4  6  4  4  4  4  4  0  0  0  0
%c M  cc GPS ccc cccc cccc cccc cccc ccccc ccccc ccccc ccccc
%c cc cc ccc ccc cccc cccc cccc cccc ccccc ccccc ccccc ccccc
%f  1.2500000  1.025000000  0.00000000000  0.000000000000000
%f  0.0000000  0.000000000  0.00000000000  0.000000000000000
%i    0    0    0    0      0      0      0      0         0
%i    0    0    0    0      0      0      0      0         0
/* Center for Orbit Determination in Europe (CODE)                              
/* Final GNSS orbits and clocks for year-day 2024-2140                          
/* Middle day of a 3-day long-arc GRE solution                                  
/* Product reference - DOI 10.48350/197025                                      
/* PCV:IGS20      OL/AL:FES2014b NONE     YN ORB:CoN CLK:CoN                    
*  2024  8  1  6 35  0.00000000
PG01  24947.147609   8048.118541  -5627.885300    230.620081
PG02  14364.794918 -22122.833937   -234.987040   -387.829098
PG03   8775.181546 -13116.077907 -21508.915883    482.177242
PG04   3291.811902 -21566.880699 -15037.377475    415.352599
PG05 -23015.117802   5871.897346  11780.571626   -181.696724
PG06 -13994.497023  -5519.856441 -21838.572137    126.477890
PG07    371.196827 -20417.395773  17256.996837    -59.218042
PG08  10800.602605 -12173.869285  20800.125907    298.087197
PG09  -6658.255447 -25125.274090  -5404.817254    296.126874
PG10  21866.761147  10710.756979  11208.377868    -81.412712
PG11 -20442.785746   7791.403413 -14992.386309   -714.577096
PG12 -12542.386161  11883.594410 -20438.181146   -526.862831
PG13 -14582.547513   2921.901598  21790.510323    668.139976
PG14 -18740.189929 -13173.560651  13671.556050    462.165756
PG15  -9079.461579  13858.841765  20215.176754    187.557020
PG16  25215.189245   -327.441332   8686.262289   -220.809183
PG17 -13271.634896 -21018.935742  -8700.656998    665.252495
PG18   -823.567261  19837.297438  17549.734035   -642.211056
PG19 -15745.368900 -14281.324400 -16344.125120    518.470076
PG20 -26353.524022   2044.158389   1594.096966    372.153148
PG21  16782.516707 -19276.357732   5178.661217    105.519955
PG22 -23285.056227 -10567.434582   7003.272211    -46.268558
PG23  11019.302700  14434.622690  19480.932469    287.106704
PG24 -14568.264224  21910.585008    646.985608   -485.146978
PG25    170.256898  15718.633143 -21761.319040    498.998536
PG26  25989.775028   4822.566323  -4328.579982    109.228488
PG27  15873.069420    -36.140310  21067.413544    -32.314531
PG28  13050.114780   7892.223768 -21754.992977   -354.800267
PG29   1867.563466  25074.473674  -8397.533188   -586.556048
PG30  -9204.734515 -13452.386924  21086.135141   -347.851452
PG31  19498.122711  -3508.733520 -18093.152167   -226.292029
PG32  15439.378803  19162.057409 -10037.209596   -608.829508
PR01   5144.483440  17341.306192  17975.936128     93.143781
PR02  15944.178192  19701.218121   3222.238118    -23.916979
PR03  18694.608743  10672.602466 -13689.882699    104.816798
PR04  10927.440149  -3596.244109 -22742.957970    247.857925
PR05  -2437.966946 -16136.536007 -19588.590049    135.398464
PR07 -18522.305571 -10067.724455  14360.350506     87.888696
PR08 -10792.619384   4052.425200  22806.796635     -6.227174
PR09 -11058.905082  -8123.667471  21544.733052    200.910846
PR11 -23467.051758   8387.702735  -5475.648773     16.358886
PR12  -8667.223962  12225.818640 -20607.602343     43.124469
PR14  23347.335671   -623.408162 -10209.153195     26.756282
PR15  22794.270870  -8932.036881   7169.967234     77.319561
PR16   8810.564097 -12150.116371  20629.801309     27.888892
PR17  10899.389434    531.987576  23064.324395    109.661160
PR18  12574.229955 -15704.236017  15669.667054    154.835623
PR19   9456.040288 -23615.611644   1980.545939   -285.948882
PR20  -1679.242990 -18385.144120 -17581.125310   -117.018424
PR21 -10635.999781  -1233.931778 -23152.370430   -122.298350
PR22 -13085.512630  16322.437757 -14574.565991     78.158023
PR24   3172.669665  18009.456884  17784.926462    -66.012559
PR25 -11237.937479   -774.798866 -22880.444863    -99.009885
PR26 -11771.893008   2812.762384  22473.847616      7.331783
PE02 -27367.079883  -9664.052005   5791.300104    147.826559
PE03 -18247.613672 -15184.980122  17686.493632   -130.737124
PE04  15474.214291  -6953.512484 -24251.905069      2.565854
PE05 -10199.391091 -27778.251428    886.058076   4771.116420
PE06  10482.732949 -17059.736195 -21814.134117    -10.821212
PE07  -4126.176232  24011.124422  16802.912524   -134.192296
PE08 -15714.274454   5886.623504  24381.512923   -312.027083
PE09   4083.881529 -23950.370202 -16922.082731   -536.410446
PE10  20639.940135 -21056.737891   2671.234204   -644.980797
PE11  14785.956078 -24447.565858  -7743.394240   2189.905570
PE12  22885.439527 -14846.734380  11470.353418  -1148.101860
PE13 -15194.426179  24364.195433   7189.041910    -23.457815
PE14  15960.897332  11052.066114  13620.523305    143.282475
PE15 -22883.411354  14405.826918 -12040.397533   -118.232871
PE18 -20861.090038 -17757.316306 -16984.804291    382.789218
PE19  17706.571332  17120.068056 -16409.594933    383.686804
PE21  12804.528921  17057.745643 -20517.909384   -608.606340
PE24  10117.953678 -14701.625027  23607.881169   -905.773775
PE25 -12350.695176 -17130.796065  20750.470148      7.515278
PE26   1840.310915  19687.262928  22023.918695    528.848842
PE27  -9830.400192  14762.481001 -23690.766299   -414.965622
PE29  10399.953473  27685.445783  -1320.155538    -19.669507
PE30 -26416.961091   3728.456558 -12820.285437   -565.817460
PE31  26384.087819  -3807.424260  12876.365204    -31.140518
PE33  16740.052944   4299.116709  24030.452299     14.247898
PE34 -17029.068598  -3837.880770 -23910.013499   -125.914381
PE36  -1218.185939 -19918.759623 -21863.129359   -262.935627
EOF
